FM104
1 40090C 14040E   19033.75408498  .00000000  00000-0  00000-0 0 15866
2 40090  47.0055 166.8367 0017278  53.3638 306.8832 14.53329392234927
